CTC1_L_00155001-01
1 10000U 22881LV  26075.70031250  .00000000  00000+0  00000-0 0  9999
2 10000  90.0000   0.0000 0000000   0.0000   0.0000 14.06899812    11
CTC1_L_00155001-02
1 10001U 24164LT  26075.70031250  .00000000  00000+0  00000-0 0  9996
2 10001  90.0000   0.0000 0000000   0.0000  90.0000 14.06899812    11
CTC1_L_00155001-03
1 10002U 23430US  26075.70031250  .00000000  00000+0  00000-0 0  9992
2 10002  90.0000   0.0000 0000000   0.0000 180.0000 14.06899812    12
CTC1_L_00155001-04
1 10003U 24538HC  26075.70031250  .00000000  00000+0  00000-0 0  9993
2 10003  90.0000   0.0000 0000000   0.0000 270.0000 14.06899812    13
CTC1_L_00155002-01
1 10004U 25482PZ  26075.70031250  .00000000  00000+0  00000-0 0  9993
2 10004  90.0000  12.0000 0000000   0.0000  12.0000 14.06899812    11
CTC1_L_00155002-02
1 10005U 24004AB  26075.70031250  .00000000  00000+0  00000-0 0  9993
2 10005  90.0000  12.0000 0000000   0.0000 102.0000 14.06899812    12
CTC1_L_00155002-03
1 10006U 26782OJ  26075.70031250  .00000000  00000+0  00000-0 0  9999
2 10006  90.0000  12.0000 0000000   0.0000 192.0000 14.06899812    12
CTC1_L_00155002-04
1 10007U 22292AV  26075.70031250  .00000000  00000+0  00000-0 0  9992
2 10007  90.0000  12.0000 0000000   0.0000 282.0000 14.06899812    13
CTC1_L_00155003-01
1 10008U 26025GF  26075.70031250  .00000000  00000+0  00000-0 0  9991
2 10008  90.0000  24.0000 0000000   0.0000  24.0000 14.06899812    11
CTC1_L_00155003-02
1 10009U 26020HB  26075.70031250  .00000000  00000+0  00000-0 0  9997
2 10009  90.0000  24.0000 0000000   0.0000 114.0000 14.06899812    12
CTC1_L_00155003-03
1 10010U 24804PH  26075.70031250  .00000000  00000+0  00000-0 0  9997
2 10010  90.0000  24.0000 0000000   0.0000 204.0000 14.06899812    14
CTC1_L_00155003-04
1 10011U 24909YV  26075.70031250  .00000000  00000+0  00000-0 0  9994
2 10011  90.0000  24.0000 0000000   0.0000 294.0000 14.06899812    14
CTC1_L_00155004-01
1 10012U 23089CE  26075.70031250  .00000000  00000+0  00000-0 0  9993
2 10012  90.0000  36.0000 0000000   0.0000  36.0000 14.06899812    12
CTC1_L_00155004-02
1 10013U 26873WL  26075.70031250  .00000000  00000+0  00000-0 0  9998
2 10013  90.0000  36.0000 0000000   0.0000 126.0000 14.06899812    13
CTC1_L_00155004-03
1 10014U 26516TV  26075.70031250  .00000000  00000+0  00000-0 0  9993
2 10014  90.0000  36.0000 0000000   0.0000 216.0000 14.06899812    14
CTC1_L_00155004-04
1 10015U 22126YK  26075.70031250  .00000000  00000+0  00000-0 0  9997
2 10015  90.0000  36.0000 0000000   0.0000 306.0000 14.06899812    15
CTC1_L_00155005-01
1 10016U 26957ZX  26075.70031250  .00000000  00000+0  00000-0 0  9994
2 10016  90.0000  48.0000 0000000   0.0000  48.0000 14.06899812    12
CTC1_L_00155005-02
1 10017U 23547NZ  26075.70031250  .00000000  00000+0  00000-0 0  9997
2 10017  90.0000  48.0000 0000000   0.0000 138.0000 14.06899812    13
CTC1_L_00155005-03
1 10018U 26579AG  26075.70031250  .00000000  00000+0  00000-0 0  9996
2 10018  90.0000  48.0000 0000000   0.0000 228.0000 14.06899812    14
CTC1_L_00155005-04
1 10019U 25228EF  26075.70031250  .00000000  00000+0  00000-0 0  9997
2 10019  90.0000  48.0000 0000000   0.0000 318.0000 14.06899812    15
CTC1_L_00155006-01
1 10020U 26472EW  26075.70031250  .00000000  00000+0  00000-0 0  9991
2 10020  90.0000  60.0000 0000000   0.0000  60.0000 14.06899812    15
CTC1_L_00155006-02
1 10021U 26177KX  26075.70031250  .00000000  00000+0  00000-0 0  9994
2 10021  90.0000  60.0000 0000000   0.0000 150.0000 14.06899812    16
CTC1_L_00155006-03
1 10022U 23499IG  26075.70031250  .00000000  00000+0  00000-0 0  9999
2 10022  90.0000  60.0000 0000000   0.0000 240.0000 14.06899812    17
CTC1_L_00155006-04
1 10023U 22739DV  26075.70031250  .00000000  00000+0  00000-0 0  9996
2 10023  90.0000  60.0000 0000000   0.0000 330.0000 14.06899812    18
CTC1_L_00155007-01
1 10024U 23796AI  26075.70031250  .00000000  00000+0  00000-0 0  9991
2 10024  90.0000  72.0000 0000000   0.0000  72.0000 14.06899812    15
CTC1_L_00155007-02
1 10025U 25272VU  26075.70031250  .00000000  00000+0  00000-0 0  9993
2 10025  90.0000  72.0000 0000000   0.0000 162.0000 14.06899812    16
CTC1_L_00155007-03
1 10026U 25386RD  26075.70031250  .00000000  00000+0  00000-0 0  9990
2 10026  90.0000  72.0000 0000000   0.0000 252.0000 14.06899812    17
CTC1_L_00155007-04
1 10027U 23449NX  26075.70031250  .00000000  00000+0  00000-0 0  9999
2 10027  90.0000  72.0000 0000000   0.0000 342.0000 14.06899812    18
CTC1_L_00155008-01
1 10028U 22073GN  26075.70031250  .00000000  00000+0  00000-0 0  9992
2 10028  90.0000  84.0000 0000000   0.0000  84.0000 14.06899812    15
CTC1_L_00155008-02
1 10029U 26680NI  26075.70031250  .00000000  00000+0  00000-0 0  9991
2 10029  90.0000  84.0000 0000000   0.0000 174.0000 14.06899812    16
CTC1_L_00155008-03
1 10030U 25716IO  26075.70031250  .00000000  00000+0  00000-0 0  9992
2 10030  90.0000  84.0000 0000000   0.0000 264.0000 14.06899812    18
CTC1_L_00155008-04
1 10031U 23585Z   26075.70031250  .00000000  00000+0  00000-0 0  9995
2 10031  90.0000  84.0000 0000000   0.0000 354.0000 14.06899812    19
CTC1_L_00155009-01
1 10032U 23548XL  26075.70031250  .00000000  00000+0  00000-0 0  9995
2 10032  90.0000  96.0000 0000000   0.0000  96.0000 14.06899812    16
CTC1_L_00155009-02
1 10033U 25489NU  26075.70031250  .00000000  00000+0  00000-0 0  9992
2 10033  90.0000  96.0000 0000000   0.0000 186.0000 14.06899812    17
CTC1_L_00155009-03
1 10034U 22013YE  26075.70031250  .00000000  00000+0  00000-0 0  9993
2 10034  90.0000  96.0000 0000000   0.0000 276.0000 14.06899812    18
CTC1_L_00155009-04
1 10035U 23352B   26075.70031250  .00000000  00000+0  00000-0 0  9991
2 10035  90.0000  96.0000 0000000   0.0000   6.0000 14.06899812    10
CTC1_L_00155010-01
1 10036U 23229SE  26075.70031250  .00000000  00000+0  00000-0 0  9995
2 10036  90.0000 108.0000 0000000   0.0000 108.0000 14.06899812    18
CTC1_L_00155010-02
1 10037U 22031MR  26075.70031250  .00000000  00000+0  00000-0 0  9996
2 10037  90.0000 108.0000 0000000   0.0000 198.0000 14.06899812    18
CTC1_L_00155010-03
1 10038U 26627WG  26075.70031250  .00000000  00000+0  00000-0 0  9992
2 10038  90.0000 108.0000 0000000   0.0000 288.0000 14.06899812    19
CTC1_L_00155010-04
1 10039U 25450EY  26075.70031250  .00000000  00000+0  00000-0 0  9996
2 10039  90.0000 108.0000 0000000   0.0000  18.0000 14.06899812    11
CTC1_L_00155011-01
1 10040U 24430OR  26075.70031250  .00000000  00000+0  00000-0 0  9995
2 10040  90.0000 120.0000 0000000   0.0000 120.0000 14.06899812    11
CTC1_L_00155011-02
1 10041U 24203GN  26075.70031250  .00000000  00000+0  00000-0 0  9994
2 10041  90.0000 120.0000 0000000   0.0000 210.0000 14.06899812    12
CTC1_L_00155011-03
1 10042U 26617OL  26075.70031250  .00000000  00000+0  00000-0 0  9996
2 10042  90.0000 120.0000 0000000   0.0000 300.0000 14.06899812    13
CTC1_L_00155011-04
1 10043U 26987MF  26075.70031250  .00000000  00000+0  00000-0 0  9997
2 10043  90.0000 120.0000 0000000   0.0000  30.0000 14.06899812    14
CTC1_L_00155012-01
1 10044U 22853XR  26075.70031250  .00000000  00000+0  00000-0 0  9996
2 10044  90.0000 132.0000 0000000   0.0000 132.0000 14.06899812    11
CTC1_L_00155012-02
1 10045U 23854WS  26075.70031250  .00000000  00000+0  00000-0 0  9999
2 10045  90.0000 132.0000 0000000   0.0000 222.0000 14.06899812    12
CTC1_L_00155012-03
1 10046U 25896NG  26075.70031250  .00000000  00000+0  00000-0 0  9998
2 10046  90.0000 132.0000 0000000   0.0000 312.0000 14.06899812    13
CTC1_L_00155012-04
1 10047U 22049HT  26075.70031250  .00000000  00000+0  00000-0 0  9996
2 10047  90.0000 132.0000 0000000   0.0000  42.0000 14.06899812    14
CTC1_L_00155013-01
1 10048U 26371A   26075.70031250  .00000000  00000+0  00000-0 0  9999
2 10048  90.0000 144.0000 0000000   0.0000 144.0000 14.06899812    11
CTC1_L_00155013-02
1 10049U 23808AJ  26075.70031250  .00000000  00000+0  00000-0 0  9992
2 10049  90.0000 144.0000 0000000   0.0000 234.0000 14.06899812    12
CTC1_L_00155013-03
1 10050U 23755OR  26075.70031250  .00000000  00000+0  00000-0 0  9995
2 10050  90.0000 144.0000 0000000   0.0000 324.0000 14.06899812    14
CTC1_L_00155013-04
1 10051U 24488VI  26075.70031250  .00000000  00000+0  00000-0 0  9990
2 10051  90.0000 144.0000 0000000   0.0000  54.0000 14.06899812    15
CTC1_L_00155014-01
1 10052U 23469ED  26075.70031250  .00000000  00000+0  00000-0 0  9999
2 10052  90.0000 156.0000 0000000   0.0000 156.0000 14.06899812    12
CTC1_L_00155014-02
1 10053U 26231JZ  26075.70031250  .00000000  00000+0  00000-0 0  9990
2 10053  90.0000 156.0000 0000000   0.0000 246.0000 14.06899812    13
CTC1_L_00155014-03
1 10054U 26766LX  26075.70031250  .00000000  00000+0  00000-0 0  9994
2 10054  90.0000 156.0000 0000000   0.0000 336.0000 14.06899812    14
CTC1_L_00155014-04
1 10055U 23029NT  26075.70031250  .00000000  00000+0  00000-0 0  9994
2 10055  90.0000 156.0000 0000000   0.0000  66.0000 14.06899812    15
CTC1_L_00155015-01
1 10056U 24496ET  26075.70031250  .00000000  00000+0  00000-0 0  9994
2 10056  90.0000 168.0000 0000000   0.0000 168.0000 14.06899812    12
CTC1_L_00155015-02
1 10057U 23578FR  26075.70031250  .00000000  00000+0  00000-0 0  9995
2 10057  90.0000 168.0000 0000000   0.0000 258.0000 14.06899812    13
CTC1_L_00155015-03
1 10058U 22723SX  26075.70031250  .00000000  00000+0  00000-0 0  9997
2 10058  90.0000 168.0000 0000000   0.0000 348.0000 14.06899812    14
CTC1_L_00155015-04
1 10059U 26752QT  26075.70031250  .00000000  00000+0  00000-0 0  9994
2 10059  90.0000 168.0000 0000000   0.0000  78.0000 14.06899812    15
CTC1_L_00155016-01
1 10060U 22181MY  26075.70031250  .00000000  00000+0  00000-0 0  9998
2 10060  90.0000 180.0000 0000000   0.0000 180.0000 14.06899812    15
CTC1_L_00155016-02
1 10061U 25518GX  26075.70031250  .00000000  00000+0  00000-0 0  9996
2 10061  90.0000 180.0000 0000000   0.0000 270.0000 14.06899812    16
